{
  "norad_id": 53986,
  "name": "STARLINK-5119",
  "history": [
    {
      "epoch": "2026-03-28T19:23:22.271424Z",
      "apogee_km": 540.5568597180272,
      "perigee_km": 538.9979768830062,
      "latitude_deg": 6.667696027902811e-07,
      "longitude_deg": 0.9108677208726805,
      "height_km": 540.6272226343251,
      "semi_major_axis_km": 6917.914418300516,
      "eccentricity": 0.00011267,
      "inclination_deg": 53.2169,
      "raan_deg": 117.9767,
      "arg_perigee_deg": 86.6043,
      "mean_anomaly_deg": 273.5078,
      "mean_motion_rev_day": 15.08828867
    }
  ]
}