{"fetched_at":"2026-03-29T16:36:15Z","count":15609,"tles":[{"name":"STARLINK-5119","line1":"1 53986U 22125Y   26087.80789666  .00001532  00000+0  11434-3 0  9992","line2":"2 53986  53.2169 117.9767 0001126  86.6043 273.5078 15.08828867192483","category":"Starlink"}]}